[{"OBJECT_NAME":"GONETS-M 20","OBJECT_ID":"2020-091A","EPOCH":"2023-06-05T02:52:55.475328","MEAN_MOTION":12.42890285,"ECCENTRICITY":0.0021687,"INCLINATION":82.5033,"RA_OF_ASC_NODE":271.1531,"ARG_OF_PERICENTER":81.6976,"MEAN_ANOMALY":278.6561,"EPHEMERIS_TYPE":0,"CLASSIFICATION_TYPE":"U","NORAD_CAT_ID":47227,"ELEMENT_SET_NO":999,"REV_AT_EPOCH":11355,"BSTAR":0.00015304,"MEAN_MOTION_DOT":3.1e-7,"MEAN_MOTION_DDOT":0},{"OBJECT_NAME":"GONETS-M 21","OBJECT_ID":"2020-091B","EPOCH":"2023-06-05T04:06:00.643392","MEAN_MOTION":12.42866418,"ECCENTRICITY":0.001583,"INCLINATION":82.4959,"RA_OF_ASC_NODE":270.5114,"ARG_OF_PERICENTER":95.0553,"MEAN_ANOMALY":265.2334,"EPHEMERIS_TYPE":0,"CLASSIFICATION_TYPE":"U","NORAD_CAT_ID":47228,"ELEMENT_SET_NO":999,"REV_AT_EPOCH":11355,"BSTAR":0.00011725,"MEAN_MOTION_DOT":2.6e-7,"MEAN_MOTION_DDOT":0},{"OBJECT_NAME":"GONETS-M 22","OBJECT_ID":"2020-091C","EPOCH":"2023-06-05T03:29:53.795328","MEAN_MOTION":12.4290071,"ECCENTRICITY":0.0022554,"INCLINATION":82.5015,"RA_OF_ASC_NODE":270.9122,"ARG_OF_PERICENTER":75.4685,"MEAN_ANOMALY":284.8895,"EPHEMERIS_TYPE":0,"CLASSIFICATION_TYPE":"U","NORAD_CAT_ID":47229,"ELEMENT_SET_NO":999,"REV_AT_EPOCH":11354,"BSTAR":0.00013133,"MEAN_MOTION_DOT":2.8e-7,"MEAN_MOTION_DDOT":0},{"OBJECT_NAME":"COSMOS 2548","OBJECT_ID":"2020-091D","EPOCH":"2023-06-05T03:34:40.814400","MEAN_MOTION":12.42896126,"ECCENTRICITY":0.0016065,"INCLINATION":82.4994,"RA_OF_ASC_NODE":270.76,"ARG_OF_PERICENTER":92.5779,"MEAN_ANOMALY":267.714,"EPHEMERIS_TYPE":0,"CLASSIFICATION_TYPE":"U","NORAD_CAT_ID":47230,"ELEMENT_SET_NO":999,"REV_AT_EPOCH":11355,"BSTAR":4.1585e-5,"MEAN_MOTION_DOT":1.6e-7,"MEAN_MOTION_DDOT":0},{"OBJECT_NAME":"GAOFEN 14","OBJECT_ID":"2020-092A","EPOCH":"2023-06-05T04:17:45.639744","MEAN_MOTION":15.25580654,"ECCENTRICITY":7.69e-5,"INCLINATION":97.3496,"RA_OF_ASC_NODE":233.7229,"ARG_OF_PERICENTER":207.364,"MEAN_ANOMALY":152.7558,"EPHEMERIS_TYPE":0,"CLASSIFICATION_TYPE":"U","NORAD_CAT_ID":47231,"ELEMENT_SET_NO":999,"REV_AT_EPOCH":13889,"BSTAR":0.00032324,"MEAN_MOTION_DOT":8.138e-5,"MEAN_MOTION_DDOT":0},{"OBJECT_NAME":"GECAM-A","OBJECT_ID":"2020-094A","EPOCH":"2023-06-04T20:58:39.234144","MEAN_MOTION":14.92702548,"ECCENTRICITY":0.0012151,"INCLINATION":28.9975,"RA_OF_ASC_NODE":338.1131,"ARG_OF_PERICENTER":293.229,"MEAN_ANOMALY":66.7026,"EPHEMERIS_TYPE":0,"CLASSIFICATION_TYPE":"U","NORAD_CAT_ID":47234,"ELEMENT_SET_NO":999,"REV_AT_EPOCH":13547,"BSTAR":0.00017657,"MEAN_MOTION_DOT":2.005e-5,"MEAN_MOTION_DDOT":0},{"OBJECT_NAME":"GECAM-B","OBJECT_ID":"2020-094B","EPOCH":"2023-06-04T22:28:22.012896","MEAN_MOTION":14.9295994,"ECCENTRICITY":0.0012453,"INCLINATION":28.9981,"RA_OF_ASC_NODE":336.6566,"ARG_OF_PERICENTER":294.5293,"MEAN_ANOMALY":65.4005,"EPHEMERIS_TYPE":0,"CLASSIFICATION_TYPE":"U","NORAD_CAT_ID":47235,"ELEMENT_SET_NO":999,"REV_AT_EPOCH":13548,"BSTAR":0.00020642,"MEAN_MOTION_DOT":2.335e-5,"MEAN_MOTION_DDOT":0},{"OBJECT_NAME":"SXM-7","OBJECT_ID":"2020-096A","EPOCH":"2023-06-04T23:21:42.708672","MEAN_MOTION":1.00271722,"ECCENTRICITY":8.43e-5,"INCLINATION":0.0165,"RA_OF_ASC_NODE":359.7093,"ARG_OF_PERICENTER":188.1713,"MEAN_ANOMALY":330.4554,"EPHEMERIS_TYPE":0,"CLASSIFICATION_TYPE":"U","NORAD_CAT_ID":47240,"ELEMENT_SET_NO":999,"REV_AT_EPOCH":922,"BSTAR":0,"MEAN_MOTION_DOT":-1.91e-6,"MEAN_MOTION_DDOT":0},{"OBJECT_NAME":"IPM 2 & BREEZE-M R\/B","OBJECT_ID":"2020-097A","EPOCH":"2023-06-04T09:25:58.854720","MEAN_MOTION":0.95297506,"ECCENTRICITY":0.0083611,"INCLINATION":2.3539,"RA_OF_ASC_NODE":90.6596,"ARG_OF_PERICENTER":245.9208,"MEAN_ANOMALY":112.5911,"EPHEMERIS_TYPE":0,"CLASSIFICATION_TYPE":"U","NORAD_CAT_ID":47242,"ELEMENT_SET_NO":999,"REV_AT_EPOCH":870,"BSTAR":0,"MEAN_MOTION_DOT":-4.9e-7,"MEAN_MOTION_DDOT":0},{"OBJECT_NAME":"STRIX-ALPHA","OBJECT_ID":"2020-098A","EPOCH":"2023-06-05T05:08:15.364608","MEAN_MOTION":15.49212487,"ECCENTRICITY":0.0005949,"INCLINATION":97.2727,"RA_OF_ASC_NODE":47.535,"ARG_OF_PERICENTER":14.741,"MEAN_ANOMALY":345.4014,"EPHEMERIS_TYPE":0,"CLASSIFICATION_TYPE":"U","NORAD_CAT_ID":47253,"ELEMENT_SET_NO":999,"REV_AT_EPOCH":13761,"BSTAR":0.00095828,"MEAN_MOTION_DOT":0.0005245,"MEAN_MOTION_DDOT":0},{"OBJECT_NAME":"CMS-01","OBJECT_ID":"2020-099A","EPOCH":"2023-06-04T21:30:10.552608","MEAN_MOTION":1.00272808,"ECCENTRICITY":0.0004109,"INCLINATION":0.0879,"RA_OF_ASC_NODE":99.2727,"ARG_OF_PERICENTER":179.4219,"MEAN_ANOMALY":19.9304,"EPHEMERIS_TYPE":0,"CLASSIFICATION_TYPE":"U","NORAD_CAT_ID":47256,"ELEMENT_SET_NO":999,"REV_AT_EPOCH":908,"BSTAR":0,"MEAN_MOTION_DOT":-1.51e-6,"MEAN_MOTION_DDOT":0},{"OBJECT_NAME":"ONEWEB-0102","OBJECT_ID":"2020-100A","EPOCH":"2023-06-05T04:18:43.672032","MEAN_MOTION":13.12444719,"ECCENTRICITY":0.0001793,"INCLINATION":87.9007,"RA_OF_ASC_NODE":210.8454,"ARG_OF_PERICENTER":92.0636,"MEAN_ANOMALY":268.0698,"EPHEMERIS_TYPE":0,"CLASSIFICATION_TYPE":"U","NORAD_CAT_ID":47258,"ELEMENT_SET_NO":999,"REV_AT_EPOCH":11939,"BSTAR":-0.0010303,"MEAN_MOTION_DOT":-3.58e-6,"MEAN_MOTION_DDOT":0},{"OBJECT_NAME":"ONEWEB-0109","OBJECT_ID":"2020-100B","EPOCH":"2023-06-05T04:33:57.873024","MEAN_MOTION":13.12444676,"ECCENTRICITY":0.0002133,"INCLINATION":87.9024,"RA_OF_ASC_NODE":210.847,"ARG_OF_PERICENTER":94.9839,"MEAN_ANOMALY":265.1533,"EPHEMERIS_TYPE":0,"CLASSIFICATION_TYPE":"U","NORAD_CAT_ID":47259,"ELEMENT_SET_NO":999,"REV_AT_EPOCH":11922,"BSTAR":-0.00050199,"MEAN_MOTION_DOT":-1.68e-6,"MEAN_MOTION_DDOT":0},{"OBJECT_NAME":"ONEWEB-0110","OBJECT_ID":"2020-100C","EPOCH":"2023-06-05T05:07:31.086336","MEAN_MOTION":13.12443634,"ECCENTRICITY":0.0001968,"INCLINATION":87.9021,"RA_OF_ASC_NODE":210.8115,"ARG_OF_PERICENTER":90.2765,"MEAN_ANOMALY":269.8589,"EPHEMERIS_TYPE":0,"CLASSIFICATION_TYPE":"U","NORAD_CAT_ID":47260,"ELEMENT_SET_NO":999,"REV_AT_EPOCH":11939,"BSTAR":0.0011815,"MEAN_MOTION_DOT":4.38e-6,"MEAN_MOTION_DDOT":0},{"OBJECT_NAME":"ONEWEB-0111","OBJECT_ID":"2020-100D","EPOCH":"2023-06-04T17:04:46.301664","MEAN_MOTION":13.12439577,"ECCENTRICITY":0.0001954,"INCLINATION":87.9021,"RA_OF_ASC_NODE":210.8939,"ARG_OF_PERICENTER":93.9981,"MEAN_ANOMALY":266.1371,"EPHEMERIS_TYPE":0,"CLASSIFICATION_TYPE":"U","NORAD_CAT_ID":47261,"ELEMENT_SET_NO":999,"REV_AT_EPOCH":11916,"BSTAR":-0.00085518,"MEAN_MOTION_DOT":-2.95e-6,"MEAN_MOTION_DDOT":0},{"OBJECT_NAME":"ONEWEB-0114","OBJECT_ID":"2020-100E","EPOCH":"2023-06-05T04:49:13.280160","MEAN_MOTION":13.12443055,"ECCENTRICITY":0.000158,"INCLINATION":87.9023,"RA_OF_ASC_NODE":210.8237,"ARG_OF_PERICENTER":104.1197,"MEAN_ANOMALY":256.0107,"EPHEMERIS_TYPE":0,"CLASSIFICATION_TYPE":"U","NORAD_CAT_ID":47262,"ELEMENT_SET_NO":999,"REV_AT_EPOCH":11918,"BSTAR":0.00040531,"MEAN_MOTION_DOT":1.59e-6,"MEAN_MOTION_DDOT":0},{"OBJECT_NAME":"ONEWEB-0117","OBJECT_ID":"2020-100F","EPOCH":"2023-06-05T04:37:01.396128","MEAN_MOTION":13.12444754,"ECCENTRICITY":0.0002136,"INCLINATION":87.9026,"RA_OF_ASC_NODE":210.8556,"ARG_OF_PERICENTER":96.2103,"MEAN_ANOMALY":263.9269,"EPHEMERIS_TYPE":0,"CLASSIFICATION_TYPE":"U","NORAD_CAT_ID":47263,"ELEMENT_SET_NO":999,"REV_AT_EPOCH":11919,"BSTAR":-0.00033598,"MEAN_MOTION_DOT":-1.08e-6,"MEAN_MOTION_DDOT":0}]
