GONETS-M 20             
1 47227U 20091A   23156.12008652  .00000031  00000+0  15304-3 0  9994
2 47227  82.5033 271.1531 0021687  81.6976 278.6561 12.42890285113557
GONETS-M 21             
1 47228U 20091B   23156.17084078  .00000026  00000+0  11725-3 0  9993
2 47228  82.4959 270.5114 0015830  95.0553 265.2334 12.42866418113558
GONETS-M 22             
1 47229U 20091C   23156.14576152  .00000028  00000+0  13133-3 0  9997
2 47229  82.5015 270.9122 0022554  75.4685 284.8895 12.42900710113547
COSMOS 2548             
1 47230U 20091D   23156.14908350  .00000016  00000+0  41585-4 0  9998
2 47230  82.4994 270.7600 0016065  92.5779 267.7140 12.42896126113556
GAOFEN 14               
1 47231U 20092A   23156.17900046  .00008138  00000+0  32324-3 0  9990
2 47231  97.3496 233.7229 0000769 207.3640 152.7558 15.25580654138892
GECAM-A                 
1 47234U 20094A   23155.87406521  .00002005  00000+0  17657-3 0  9999
2 47234  28.9975 338.1131 0012151 293.2290  66.7026 14.92702548135478
GECAM-B                 
1 47235U 20094B   23155.93636589  .00002335  00000+0  20642-3 0  9990
2 47235  28.9981 336.6566 0012453 294.5293  65.4005 14.92959940135487
SXM-7                   
1 47240U 20096A   23155.97341098 -.00000191  00000+0  00000+0 0  9991
2 47240   0.0165 359.7093 0000843 188.1713 330.4554  1.00271722  9220
IPM 2 & BREEZE-M R/B    
1 47242U 20097A   23155.39304230 -.00000049  00000+0  00000+0 0  9999
2 47242   2.3539  90.6596 0083611 245.9208 112.5911  0.95297506  8705
STRIX-ALPHA             
1 47253U 20098A   23156.21406672  .00052450  00000+0  95828-3 0  9995
2 47253  97.2727  47.5350 0005949  14.7410 345.4014 15.49212487137617
CMS-01                  
1 47256U 20099A   23155.89595547 -.00000151  00000+0  00000+0 0  9998
2 47256   0.0879  99.2727 0004109 179.4219  19.9304  1.00272808  9084
ONEWEB-0102             
1 47258U 20100A   23156.17967213 -.00000358  00000+0 -10303-2 0  9998
2 47258  87.9007 210.8454 0001793  92.0636 268.0698 13.12444719119397
ONEWEB-0109             
1 47259U 20100B   23156.19025316 -.00000168  00000+0 -50199-3 0  9997
2 47259  87.9024 210.8470 0002133  94.9839 265.1533 13.12444676119220
ONEWEB-0110             
1 47260U 20100C   23156.21355424  .00000438  00000+0  11815-2 0  9997
2 47260  87.9021 210.8115 0001968  90.2765 269.8589 13.12443634119390
ONEWEB-0111             
1 47261U 20100D   23155.71164701 -.00000295  00000+0 -85518-3 0  9993
2 47261  87.9021 210.8939 0001954  93.9981 266.1371 13.12439577119165
ONEWEB-0114             
1 47262U 20100E   23156.20084815  .00000159  00000+0  40531-3 0  9999
2 47262  87.9023 210.8237 0001580 104.1197 256.0107 13.12443055119181
ONEWEB-0117             
1 47263U 20100F   23156.19237727 -.00000108  00000+0 -33598-3 0  9991
2 47263  87.9026 210.8556 0002136  96.2103 263.9269 13.12444754119199
